CCSDS_OMM_VERS,COMMENT,CREATION_DATE,ORIGINATOR,OBJECT_NAME,OBJECT_ID,CENTER_NAME,REF_FRAME,TIME_SYSTEM,MEAN_ELEMENT_THEORY,EPOCH,MEAN_MOTION,ECCENTRICITY,INCLINATION,RA_OF_ASC_NODE,ARG_OF_PERICENTER,MEAN_ANOMALY,EPHEMERIS_TYPE,CLASSIFICATION_TYPE,NORAD_CAT_ID,ELEMENT_SET_NO,REV_AT_EPOCH,BSTAR,MEAN_MOTION_DOT,MEAN_MOTION_DDOT,SEMIMAJOR_AXIS,PERIOD,APOAPSIS,PERIAPSIS,OBJECT_TYPE,RCS_SIZE,COUNTRY_CODE,LAUNCH_DATE,SITE,DECAY_DATE,FILE,GP_ID,TLE_LINE0,TLE_LINE1,TLE_LINE2
"2.0","GENERATED VIA SPACE-TRACK.ORG API","2020-12-03T23:56:09","18 SPCS","BRO-1","2019-054A","EARTH","TEME","UTC","SGP4","2020-12-03T15:26:58.127712","15.08647593","0.00111850","45.0174","113.1723","31.5299","41.6575","0","U","44495","999","7132","0.00003441700000","0.00000299","0.0000000000000","6918.468","95.449","548.071","532.595","PAYLOAD","SMALL","FR","2019-08-19","RLLC","","2896926","166842726","0 BRO-1","1 44495U 19054A   20338.64372833  .00000299  00000-0  34417-4 0  9990","2 44495  45.0174 113.1723 0011185  31.5299  41.6575 15.08647593 71321"
"2.0","GENERATED VIA SPACE-TRACK.ORG API","2020-12-04T05:56:09","18 SPCS","BRO-1","2019-054A","EARTH","TEME","UTC","SGP4","2020-12-04T02:59:57.886656","15.08646832","0.00112770","45.0177","110.6212","33.9150","135.6858","0","U","44495","999","7139","0.00001754100000","0.00000030","0.0000000000000","6918.470","95.449","548.137","532.533","PAYLOAD","SMALL","FR","2019-08-19","RLLC","","2897067","166867661","0 BRO-1","1 44495U 19054A   20339.12497554  .00000030  00000-0  17541-4 0  9994","2 44495  45.0177 110.6212 0011277  33.9150 135.6858 15.08646832 71393"
"2.0","GENERATED VIA SPACE-TRACK.ORG API","2020-12-04T20:26:10","18 SPCS","BRO-1","2019-054A","EARTH","TEME","UTC","SGP4","2020-12-04T13:37:52.182912","15.08647259","0.00112620","45.0177","108.2724","36.3108","21.7109","0","U","44495","999","7146","0.00001921500000","0.00000057","0.0000000000000","6918.469","95.449","548.126","532.543","PAYLOAD","SMALL","FR","2019-08-19","RLLC","","2897285","166872779","0 BRO-1","1 44495U 19054A   20339.56796508  .00000057  00000-0  19215-4 0  9992","2 44495  45.0177 108.2724 0011262  36.3108  21.7109 15.08647259 71464"
"2.0","GENERATED VIA SPACE-TRACK.ORG API","2020-12-04T22:46:09","18 SPCS","BRO-1","2019-054A","EARTH","TEME","UTC","SGP4","2020-12-04T18:38:54.699936","15.08647759","0.00113330","45.0175","107.1647","37.5009","77.1101","0","U","44495","999","7149","0.00002396100000","0.00000132","0.0000000000000","6918.468","95.449","548.173","532.492","PAYLOAD","SMALL","FR","2019-08-19","RLLC","","2897517","166899454","0 BRO-1","1 44495U 19054A   20339.77702199  .00000132  00000-0  23961-4 0  9995","2 44495  45.0175 107.1647 0011333  37.5009  77.1101 15.08647759 71491"
"2.0","GENERATED VIA SPACE-TRACK.ORG API","2020-12-05T14:46:10","18 SPCS","BRO-1","2019-054A","EARTH","TEME","UTC","SGP4","2020-12-05T10:30:44.570304","15.08648425","0.00112190","45.0184","103.6616","41.1045","67.1629","0","U","44495","999","7159","0.00002395300000","0.00000132","0.0000000000000","6918.466","95.449","548.092","532.569","PAYLOAD","SMALL","FR","2019-08-19","RLLC","","2897882","166950189","0 BRO-1","1 44495U 19054A   20340.43801586  .00000132  00000-0  23953-4 0  9991","2 44495  45.0184 103.6616 0011219  41.1045  67.1629 15.08648425 71598"
"2.0","GENERATED VIA SPACE-TRACK.ORG API","2020-12-05T22:36:10","18 SPCS","BRO-1","2019-054A","EARTH","TEME","UTC","SGP4","2020-12-05T18:31:04.246752","15.08649100","0.00113250","45.0172","101.8924","42.8612","78.8952","0","U","44495","999","7164","0.00003029200000","0.00000233","0.0000000000000","6918.463","95.449","548.164","532.493","PAYLOAD","SMALL","FR","2019-08-19","RLLC","","2898093","166998355","0 BRO-1","1 44495U 19054A   20340.77157693  .00000233  00000-0  30292-4 0  9997","2 44495  45.0172 101.8924 0011325  42.8612  78.8952 15.08649100 71648"
"2.0","GENERATED VIA SPACE-TRACK.ORG API","2020-12-06T03:55:47","18 SPCS","BRO-1","2019-054A","EARTH","TEME","UTC","SGP4","2020-12-05T18:31:04.246752","15.08649100","0.00113250","45.0172","101.8924","42.8612","78.8952","0","U","44495","999","7164","0.00003029200000","0.00000233","0.0000000000000","6918.463","95.449","548.164","532.493","PAYLOAD","SMALL","FR","2019-08-19","RLLC","","2898191","167019926","0 BRO-1","1 44495U 19054A   20340.77157693  .00000233  00000-0  30292-4 0  9997","2 44495  45.0172 101.8924 0011325  42.8612  78.8952 15.08649100 71648"
"2.0","GENERATED VIA SPACE-TRACK.ORG API","2020-12-06T20:04:35","18 SPCS","BRO-1","2019-054A","EARTH","TEME","UTC","SGP4","2020-12-06T05:25:41.376576","15.08650223","0.00113130","45.0175","99.4818","45.5880","27.6987","0","U","44495","999","7171","0.00003865200000","0.00000367","0.0000000000000","6918.460","95.449","548.152","532.498","PAYLOAD","SMALL","FR","2019-08-19","RLLC","","2898587","167071451","0 BRO-1","1 44495U 19054A   20341.22617334  .00000367  00000-0  38652-4 0  9997","2 44495  45.0175  99.4818 0011313  45.5880  27.6987 15.08650223 71715"
"2.0","GENERATED VIA SPACE-TRACK.ORG API","2020-12-06T14:36:10","18 SPCS","BRO-1","2019-054A","EARTH","TEME","UTC","SGP4","2020-12-06T10:21:33.246720","15.08650868","0.00112300","45.0174","98.3927","46.9083","63.4244","0","U","44495","999","7174","0.00004250900000","0.00000428","0.0000000000000","6918.458","95.449","548.092","532.554","PAYLOAD","SMALL","FR","2019-08-19","RLLC","","2898491","167049905","0 BRO-1","1 44495U 19054A   20341.43163480  .00000428  00000-0  42509-4 0  9992","2 44495  45.0174  98.3927 0011230  46.9083  63.4244 15.08650868 71743"
"2.0","GENERATED VIA SPACE-TRACK.ORG API","2020-12-06T22:36:10","18 SPCS","BRO-1","2019-054A","EARTH","TEME","UTC","SGP4","2020-12-06T18:30:17.201952","15.08652124","0.00111770","45.0172","96.5954","48.7728","106.7840","0","U","44495","999","7179","0.00005327300000","0.00000600","0.0000000000000","6918.454","95.449","548.052","532.586","PAYLOAD","SMALL","FR","2019-08-19","RLLC","","2898689","167098062","0 BRO-1","1 44495U 19054A   20341.77103243  .00000600  00000-0  53273-4 0  9992","2 44495  45.0172  96.5954 0011177  48.7728 106.7840 15.08652124 71792"
"2.0","GENERATED VIA SPACE-TRACK.ORG API","2020-12-07T04:40:31","18 SPCS","BRO-1","2019-054A","EARTH","TEME","UTC","SGP4","2020-12-06T18:30:17.201952","15.08652124","0.00111770","45.0172","96.5954","48.7728","106.7840","0","U","44495","999","7179","0.00005327300000","0.00000600","0.0000000000000","6918.454","95.449","548.052","532.586","PAYLOAD","SMALL","FR","2019-08-19","RLLC","","2898774","167119213","0 BRO-1","1 44495U 19054A   20341.77103243  .00000600  00000-0  53273-4 0  9992","2 44495  45.0172  96.5954 0011177  48.7728 106.7840 15.08652124 71792"
"2.0","GENERATED VIA SPACE-TRACK.ORG API","2020-12-07T06:36:09","18 SPCS","BRO-1","2019-054A","EARTH","TEME","UTC","SGP4","2020-12-07T00:55:30.835776","15.08652480","0.00111560","45.0175","95.1773","50.2599","119.7330","0","U","44495","999","7183","0.00005162400000","0.00000573","0.0000000000000","6918.453","95.449","548.036","532.600","PAYLOAD","SMALL","FR","2019-08-19","RLLC","","2898821","167144115","0 BRO-1","1 44495U 19054A   20342.03855134  .00000573  00000-0  51624-4 0  9992","2 44495  45.0175  95.1773 0011156  50.2599 119.7330 15.08652480 71838"
"2.0","GENERATED VIA SPACE-TRACK.ORG API","2020-12-07T17:43:35","18 SPCS","BRO-1","2019-054A","EARTH","TEME","UTC","SGP4","2020-12-07T05:16:32.467008","15.08653076","0.00110820","45.0176","94.2162","51.6339","23.8768","0","U","44495","999","7186","0.00005549900000","0.00000635","0.0000000000000","6918.451","95.449","547.983","532.649","PAYLOAD","SMALL","FR","2019-08-19","RLLC","","2899013","167167948","0 BRO-1","1 44495U 19054A   20342.21982022  .00000635  00000-0  55499-4 0  9992","2 44495  45.0176  94.2162 0011082  51.6339  23.8768 15.08653076 71861"
"2.0","GENERATED VIA SPACE-TRACK.ORG API","2020-12-07T14:36:09","18 SPCS","BRO-1","2019-054A","EARTH","TEME","UTC","SGP4","2020-12-07T08:33:36.631008","15.08653373","0.00110840","45.0176","93.4906","52.4100","47.1428","0","U","44495","999","7188","0.00005566700000","0.00000638","0.0000000000000","6918.450","95.449","547.984","532.647","PAYLOAD","SMALL","FR","2019-08-19","RLLC","","2898935","167146158","0 BRO-1","1 44495U 19054A   20342.35667397  .00000638  00000-0  55667-4 0  9992","2 44495  45.0176  93.4906 0011084  52.4100  47.1428 15.08653373 71889"
"2.0","GENERATED VIA SPACE-TRACK.ORG API","2020-12-07T17:48:54","18 SPCS","BRO-1","2019-054A","EARTH","TEME","UTC","SGP4","2020-12-07T14:32:15.790848","15.08653551","0.00108670","45.0178","92.1713","54.3560","319.3009","0","U","44495","999","7192","0.00005336400000","0.00000601","0.0000000000000","6918.450","95.449","547.833","532.797","PAYLOAD","SMALL","FR","2019-08-19","RLLC","","2899016","167188643","0 BRO-1","1 44495U 19054A   20342.60573832 +.00000601 +00000-0 +53364-4 0  9992","2 44495 045.0178 092.1713 0010867 054.3560 319.3009 15.08653551071924"
"2.0","GENERATED VIA SPACE-TRACK.ORG API","2020-12-07T22:36:09","18 SPCS","BRO-1","2019-054A","EARTH","TEME","UTC","SGP4","2020-12-07T16:31:40.175616","15.08653649","0.00108540","45.0178","91.7318","54.8318","49.6476","0","U","44495","999","7193","0.00005304700000","0.00000596","0.0000000000000","6918.450","95.449","547.824","532.805","PAYLOAD","SMALL","FR","2019-08-19","RLLC","","2899077","167191888","0 BRO-1","1 44495U 19054A   20342.68865944  .00000596  00000-0  53047-4 0  9999","2 44495  45.0178  91.7318 0010854  54.8318  49.6476 15.08653649 71932"
"2.0","GENERATED VIA SPACE-TRACK.ORG API","2020-12-08T06:46:09","18 SPCS","BRO-1","2019-054A","EARTH","TEME","UTC","SGP4","2020-12-08T03:28:30.971424","15.08654991","0.00107710","45.0184","89.3140","58.3335","6.0949","0","U","44495","999","7200","0.00006017200000","0.00000710","0.0000000000000","6918.445","95.449","547.762","532.859","PAYLOAD","SMALL","FR","2019-08-19","RLLC","","2899264","167195867","0 BRO-1","1 44495U 19054A   20343.14480291  .00000710  00000-0  60172-4 0  9994","2 44495  45.0184  89.3140 0010771  58.3335   6.0949 15.08654991 72003"
